IRIDIUM 39              
1 25042U 97069D   25211.90407150  .00000658  00000+0  16699-3 0  9993
2 25042  86.3938 192.3965 0018667 154.1480 206.0661 14.49259840455290
IRIDIUM 38              
1 25043U 97069E   25211.93398408  .00000415  00000+0  13050-3 0  9991
2 25043  86.3950 214.7529 0001654  32.2942 327.8356 14.38145211452246
IRIDIUM 42              
1 25077U 97077A   25211.78493555  .00000332  00000+0  10691-3 0  9995
2 25077  86.3946 221.0372 0002055  69.7449 290.3969 14.36377594447458
IRIDIUM 44              
1 25078U 97077B   25211.89964061  .00000429  00000+0  12931-3 0  9999
2 25078  86.3968 202.8069 0000949 143.6383 216.4881 14.40268477449999
IRIDIUM 24              
1 25105U 97082B   25211.95516836  .00000416  00000+0  12043-3 0  9996
2 25105  86.3866  61.7266 0009500 299.3750  60.6501 14.42131151449524
